#aV2014  1 27  0  0  0.00000000     288 DD+AD WGS84 FIT  NGA
## 1777  86400.00000000   300.00000000 56684 0.0000000000000
+   32     1  2  3  4  5  6  7  8  9 10 11 12 13 14 15 16 17
+         18 19 20 21 22 23 24 25 26 27 28 29 30 31 32  0  0
+          0  0  0  0  0  0  0  0  0  0  0  0  0  0  0  0  0
+          0  0  0  0  0  0  0  0  0  0  0  0  0  0  0  0  0
+          0  0  0  0  0  0  0  0  0  0  0  0  0  0  0  0  0
++         2  2  2  2  2  2  2  2  2  2  2  2  2  2  2  2  2
++         2  2  2  2  2  2  2  2  2  2  2  2  2  2  2  0  0
++         0  0  0  0  0  0  0  0  0  0  0  0  0  0  0  0  0
++         0  0  0  0  0  0  0  0  0  0  0  0  0  0  0  0  0
++         0  0  0  0  0  0  0  0  0  0  0  0  0  0  0  0  0
%c cc cc ccc ccc cccc cccc cccc cccc ccccc ccccc ccccc ccccc
%c cc cc ccc ccc cccc cccc cccc cccc ccccc ccccc ccccc ccccc
%f  0.0000000  0.000000000  0.00000000000  0.000000000000000
%f  0.0000000  0.000000000  0.00000000000  0.000000000000000
%i    0    0    0    0      0      0      0      0         0
%i    0    0    0    0      0      0      0      0         0
/*      NGA, ST. LOUIS,MO.                                  
/*   EPHEMERIS COMPUTED FROM  1 DAYS OF DATA                
/*   EPOCHA SMOOTHER                                       
/* CCCCCCCCCCCCCCCCCCCCCCCCCCCCCCCCCCCCCCCCCCCCCCCCCCCCCCCCC
*  2014  1 27  8 10  0.00000000
P  1  13984.071792  -7185.058038  21358.179638    103.100936                    
V  1   4780.376105  26800.257415   5992.603542      0.023609                    
P  2 -14272.303089 -16650.480724 -15073.950060    475.138175                    
V  2  -1331.161099 -19531.349074  21951.443176      0.022124                    
P  3  25261.440526   8031.848026  -3303.953368    317.859760                    
V  3  -4176.686978   2499.716584 -30747.810737      0.049007                    
P  4  -6555.358321 -25449.640911  -3089.315825      5.113809                    
V  4   3035.891809  -4153.018328  31079.963288      0.002872                    
P  5 -17167.309069  -4419.020004 -19868.462138   -390.905927                    
V  5  18701.072642 -16836.543751 -12282.246986      0.014109                    
P  6  21346.850710  13363.378057  -8998.992838    252.114351                    
V  6 -11708.192139   -716.459367 -28274.370557      0.150687                    
P  7   6945.728002 -21031.055113 -14348.079266    307.247096                    
V  7   4524.113600  17990.004810 -24375.740887      0.041727                    
P  8   1337.867279 -25917.885439  -3660.111046     11.596401                    
V  8   2331.777699   4805.953584 -32508.671587      0.002973                    
P  9  -1216.787971 -26167.147854  -4361.433198    301.063808                    
V  9   2885.539787   4487.886634 -31714.397406      0.027946                    
P 10   -429.203392 -17962.794590 -19759.273396   -111.742134                    
V 10  20245.176697 -14009.186654  12932.275993     -0.016027                    
P 11  17811.029301    631.444119  19265.540325   -459.113889                    
V 11  10230.556208  23699.112359  -9765.892801     -0.032551                    
P 12 -22864.653671   9949.525101   8774.639378    182.725883                    
V 12   7768.068840  -8381.163717  29784.628178      0.023301                    
P 13  12597.297280  -9747.336955 -21414.210236     35.745441                    
V 13  23672.421903  12558.678269   8121.644242     -0.038197                    
P 14   5679.417353  17390.406522  19518.942498    203.135227                    
V 14 -22392.345362  -9367.235282  14888.080872     -0.017689                    
P 15 -25377.418374  -2625.626653   7852.401049   -159.841069                    
V 15  -8452.016231  -6145.552998 -28902.575655     -0.020438                    
P 16  16926.493796   4197.422059 -20172.069945   -233.867989                    
V 16 -20163.243759  15408.729303 -13394.721656      0.014392                    
P 17  -6965.548184 -17379.745147  19177.175989    -62.934573                    
V 17  22224.073770   8390.113506  15648.578866     -0.034059                    
P 18 -14433.499112  20447.621369   8797.618351    298.431818                    
V 18 -10685.304869   3934.096031 -28384.172717      0.021195                    
P 19  24825.595443   6266.839618   7737.605884   -434.929912                    
V 19   7887.490887   6331.616909 -29523.427388     -0.024707                    
P 20  21883.452742 -13376.347753   6553.815182    156.463489                    
V 20  -3795.686856   8630.998136  29507.363178      0.032731                    
P 21  -5578.969039  22274.432809 -12309.136421   -340.555117                    
V 21  -6242.449866 -16048.367398 -25472.042049     -0.021539                    
P 22  -3765.244496  19943.723340  17253.525443    209.505953                    
V 22 -18298.012763  11927.914015 -18140.360147      0.023842                    
P 23  21953.470424  -2715.976609 -14892.937750      9.145591                    
V 23  16888.567429   8797.328453  22744.566601     -0.032471                    
P 24 -15194.886324   1713.213791  21708.918016    -22.277436                    
V 24  -4583.989869 -27213.218937   -977.273007     -0.007070                    
P 25 -18993.106192  18230.181359  -3041.450135     11.417694                    
V 25  -4487.711493    518.533169  31836.735984      0.021076                    
P 26 -22712.550595 -13831.333518  -3363.277189    182.477752                    
V 26   3948.179868   -253.918196 -31523.941963     -0.107361                    
P 27  22760.727586  12627.191119  -5375.564086    -16.417054                    
V 27  -7315.060439     69.519840 -30790.178872     -0.016406                    
P 28   7770.088247 -19370.401458  16944.594030    327.832016                    
V 28  17294.044508 -10840.121760 -21230.188184      0.030213                    
P 29 -15204.167934   8357.132503 -20056.217783    506.419763                    
V 29 -22947.351798 -11286.610858  12704.214660      0.028605                    
P 30   2580.259771  16032.102714 -21130.603157   -155.181471                    
V 30 -21216.689579  15832.383248   9693.980752      0.007586                    
P 31   7342.146393  24577.053781  -6070.633205    332.735202                    
V 31  -1361.276591   8221.595500  31107.349368      0.003579                    
P 32  21395.489011  -1157.811082  15404.268388   -495.494887                    
V 32 -14828.723550  13214.488974  22229.330392      0.059568                    
EOF
